#dP2023  2 23 12  0  0.00000000      96 __u+U ITR00 EXT  IAC
## 2250 388800.00000000   900.00000000 59998 0.5000000000000
+  118   C06C07C08C09C10C11C12C13C14C16C19C20C21C22C23C24C25
+        C26C27C28C29C30C32C33C34C35C36C38C39C40C41C42C43C44
+        C45C46E01E02E03E04E05E07E08E09E10E11E12E14E15E18E19
+        E21E24E25E26E27E30E31E33E34E36G01G02G03G04G05G06G07
+        G08G09G10G11G12G13G14G15G16G17G18G19G20G21G22G23G24
+        G25G26G27G28G29G30G31G32J02J03J04R01R02R03R04R05R07
+        R08R09R11R12R13R14R15R16R17R18R19R20R21R22R24R25  0
++         9 10 10  9  9  9  8 11  8  8  9  8  7  8  9  9 10
++         8  7  7  9  6  8  8  9  8  9  9 10  9  9  8  9  7
++         8 10  7  7  7  8  9  7  7  9  8  7  7  7  7  8  8
++         8  7  7  7  8  8  6  7  8  7  7  7  6  6  6  6  7
++         7  7  7  6  7  8  6 11  6  6  6  6  6  8  6  8  7
++         7  6  6  7  6  6  7  7 11 10 10  7  8  9  9  7  9
++         8  7  7  9  9  8  7  8  8  7  8 10  8  8 10  8  0
%c M  cc GPS ccc cccc cccc cccc cccc ccccc ccccc ccccc ccccc
%c cc cc ccc ccc cccc cccc cccc cccc ccccc ccccc ccccc ccccc
%f  0.0000000  0.000000000  0.00000000000  0.000000000000000
%f  0.0000000  0.000000000  0.00000000000  0.000000000000000
%i    0    0    0    0      0      0      0      0         0
%i    0    0    0    0      0      0      0      0         0
/* IAC                                ULTRA-RAPID PREDICTION
/* S/V CLOCKS ARE ALIGNED TO GNSS TIME                      
/* G:C1WC2W R:C1PC2P E:C1XC5X C:C2IC6I J:C1CC2S             
/* PCV:IGS20_2247 OL/AL:FES2004  NONE     YN ORB:CoN CLK:CoN
*  2023 02 24 10  0  0.00000000
PC06  -2116.855566  30191.247462 -29231.188132   -192.602256
PC07 -16318.425027  28498.509400  26397.079063     67.959288
PC08 -12471.399865  40367.624832   -815.540101    524.060069
PC09   5508.234948  34269.921212 -23161.286829    803.549033
PC10  -8152.291520  28903.070320  29728.310002      4.414630
PC11  19364.027626   -558.809408 -20023.834956   -102.786882
PC12  23050.257404  14529.384044  -5989.995130    470.808961
PC13  -8181.392480  41055.604703  -5918.673248    215.293905
PC14  26124.977339  -9897.178910     13.574802    517.089818
PC16  -3254.753345  28756.244092 -30342.389075    154.430325
PC19 -21730.986448  14885.481989  -9156.837593   -894.674353
PC20 -26467.621761   4424.031782   7622.693978    709.067502
PC21  15580.957086   9531.702310 -21083.521861   -909.842953
PC22  -4184.532949  17266.414517 -21508.952798   -616.690616
PC23   3183.263488 -27650.284921  -1979.217783   -880.698609
PC24  16333.420581   1069.401531  22580.754371   -370.768226
PC25  13054.446380 -20284.639207  13999.630757     77.350622
PC26  10284.155760  18812.709446  17862.812114    -83.264026
PC27 -20184.260780 -19141.262963  -2363.304777    101.514057
PC28  -6541.091880 -21042.744218 -17119.154341     74.081306
PC29 -12218.538505  10575.048369  22746.596137     85.350288
PC30 -23518.953392  -6204.642314  13696.825696      1.063936
PC32 -15560.494098  -9504.948350  21142.172699   -614.024178
PC33  21697.361512 -15023.023009   9105.194645   -871.850223
PC34  23181.576040   5087.447210 -14668.435606    113.144800
PC35   6101.912331  20570.944527  17810.403051    675.092360
PC36 -13797.173722  19432.143465 -14511.183380   -604.220535
PC38 -16449.788051  38113.431668   7814.152193     60.918194
PC39  -8479.979046  24376.680910 -33263.382719     -1.931368
PC40 -22729.259501  22318.092542  27487.526670    -15.936277
PC41   4802.367050 -17451.978210  21297.501105   -649.882432
PC42  26263.735970  -3599.467494  -8706.120852   -819.508011
PC43  12990.183131 -10025.397301 -22577.462743      8.755783
PC44  20760.581521  18446.851541   2508.726483     25.311932
PC45  -2945.797804  27661.418594   2376.815185    -64.475068
PC46 -16462.216999   1028.932373 -22522.506243    -35.625929
PE01 -17541.949266  23618.904850   3304.971397   -600.028249
PE02  17232.450864 -23755.976275  -3776.236214     22.701879
PE03  12322.532387 -14078.164132  22939.053042   -653.162111
PE04   9657.747450  17445.834875 -21865.986795    -65.174648
PE05  27566.819296  -2338.947666  10527.559231    -92.296330
PE07 -26423.881040 -10681.501587   7988.439214    -25.308232
PE08  -9522.706783 -17318.147923  22035.630213    -41.256641
PE09  26372.496851  10676.435076  -8179.731211   -847.359738
PE10  13861.797050  25171.574892  -7097.923244   -514.681953
PE11  17418.992656  17434.127895 -16385.002084   1011.312366
PE12   8368.527018  28279.507086   2376.687514   -434.130053
PE14 -23142.602199  -8575.936198  -1531.961211    151.179044
PE15  -8228.564267 -28310.102780  -2710.655145     -3.291859
PE18  30450.078049   1622.793612  -9591.593443   -353.988106
PE19 -15076.800827  12709.765487 -22068.813383  -3157.010314
PE21 -23137.491179  12602.068096 -13507.995437   -513.996076
PE24  15519.316875   7420.688676  24065.251973  -1131.679112
PE25  23123.231704 -12317.033663  13764.378722   -600.052235
PE26 -15925.590417   3373.061426  24729.975173     27.694307
PE27 -16101.307853  -6513.010655 -23975.125843   -519.990918
PE30    973.229931 -21939.623512 -19853.113707  -1268.152439
PE31   -361.651997  21619.498418  20218.621228   -516.895619
PE33  -5588.880817  21599.906981  19451.852148   -451.120012
PE34   5430.403742 -21741.962453 -19338.981166    -31.744763
PE36  16031.288634  -2437.771558 -24756.125098    -17.151123
PG01 -14650.456198    787.579065  21847.914112    209.079668
PG02  13548.820000  -5952.371957 -21437.487243   -618.681194
PG03 -21193.879888  10035.175546  12239.470720   -359.125232
PG04 -24194.886146   1044.688685 -11028.277067    -20.629224
PG05  15677.607897   4427.521338 -21167.836487   -117.134352
PG06   5019.570186  25842.854817   3169.629347    575.809482
PG07  -9340.611611  15774.136319 -18603.472245    235.046193
PG08 -25987.251418  -6405.394893   -853.833836   -110.041469
PG09 -16399.297601   9729.389111 -18581.950089   -212.310852
PG10   7622.213665 -21334.436808  13778.875264    -26.026772
PG11  12195.856158  21285.912136 -10211.937478   -112.886323
PG12  21644.987436  -7091.502751  13298.386602   -344.169229
PG13  22056.192185  13613.932616  -6429.019318    481.136123
PG14 -10582.363999  21510.235292  11297.308540    -19.501791
PG15  26454.804007   3626.694848  -1033.816422     16.223718
PG16 -13642.956804  -8028.432855 -21686.758224   -518.606034
PG17  -2739.342943  14919.946553  22231.173292    701.957348
PG18   6833.254391 -19183.738311 -16970.276710   -153.904269
PG19   9062.375965  16669.784310  18470.354384    281.934667
PG20   8177.291890  14452.342618 -20736.467568    448.757098
PG21 -17442.067813  -8016.087309  19272.686256    154.146909
PG22 -12181.545223 -16755.491746  17155.584871    433.385132
PG23  16224.445185 -20727.868815   2900.939319      7.567128
PG24  16980.466284   3169.729881  19924.644774    -86.953486
PG25  20292.701085 -15934.556803   5349.230235    422.742615
PG26  -3054.355589 -18207.796196 -19088.227694    241.721739
PG27 -20674.981483 -13003.486330 -11171.790750     94.931573
PG28  -4689.954471 -25659.861248   4985.893025     24.341927
PG29  19582.176712  -5649.601515 -17120.771406   -587.806204
PG30   -775.916801  24484.434540  -9832.404473   -529.209032
PG31  -6141.392683 -25565.834358    770.485944   -210.090049
PG32  -1476.114723 -15828.780427  21472.455410   -405.702563
PJ02 -29057.398047  30468.913905   1945.383467     -0.999226
PJ03 -25636.735628  22987.663940  29421.803140      0.446588
PJ04 -33117.520570  24197.954629  -5046.181669     94.224357
PR01  -6848.020616  11896.309827 -21491.653398     23.624265
PR02  12998.250828   7567.430889 -20534.249361    -23.238663
PR03  24386.337995   -845.090192  -7281.912964     73.077918
PR04  22053.425280  -8369.300183   9724.912076    177.022075
PR05   7741.146971 -11433.200335  21457.087925    108.265847
PR07 -24641.095603   1173.447987   6633.487759     50.542431
PR08 -21972.460519   8540.129933  -9721.231547    -69.591828
PR09  -4253.235694 -16727.007107 -18801.084293    105.818701
PR11 -12937.636110  16646.792493 -14344.057548     -8.872875
PR12  -6570.785752  24328.987514   4034.884428     25.225268
PR13   2910.566646  17979.279657  17839.879030    -32.369992
PR14  11809.546927   -519.786140  22609.467719     24.368537
PR15  13030.589545 -17364.313034  13404.754639     90.852265
PR16   6588.655728 -24385.714217  -3656.597469     11.648040
PR17  17694.335566  10565.224464 -15042.838615    607.592842
PR18  10039.414016  -4080.375605 -23069.886160     68.401297
PR19  -1153.229650 -15935.841135 -19883.243768   -223.042724
PR20 -14605.205241 -20797.726811  -2470.231836    -88.275245
PR21 -17194.116002  -9312.430721  16372.024303   -375.738509
PR22 -10020.542922   4699.612745  23011.006313     72.301274
PR24  15467.952157  20205.282644   1849.535796    149.130320
PR25 -17366.829233 -11460.476540  14752.534537     55.986563
EOF
